     2.100          NAVIGATION                              RINEX VERSION / TYPE
fic2rin                                 09/07/2016 00:41:29 PGM / RUN BY / DATE
                                                            END OF HEADER
13 16  9  6 12  0  0.0 -.421004369855D-04 -.227373675443D-11  .000000000000D+00
     .610000000000D+02  .701250000000D+02  .421338979031D-08 -.370763791046D+00
     .350922346115D-05  .402264285367D-02  .816211104393D-05  .515368836212D+04
     .216000000000D+06 -.894069671631D-07 -.183592860088D+01 -.242143869400D-07
     .970637403195D+00  .228406250000D+03  .196507507768D+01 -.798676125209D-08
     .276082928534D-09  .100000000000D+01  .191300000000D+04  .000000000000D+00
     .240000000000D+01  .000000000000D+00 -.111758708954D-07  .610000000000D+02
     .208806000000D+06  .400000000000D+01
14 16  9  6 12  0  0.0 -.336654484272D-04 -.193267624127D-11  .000000000000D+00
     .107000000000D+03  .629062500000D+02  .432839458072D-08  .102021205570D+01
     .326521694660D-05  .894187157974D-02  .927783548832D-05  .515406023788D+04
     .216000000000D+06 -.128522515297D-06 -.187364165027D+01 -.186264514923D-07
     .963155301364D+00  .199656250000D+03 -.195218179109D+01 -.812891003030D-08
     .184293390845D-09  .100000000000D+01  .191300000000D+04  .000000000000D+00
     .340000000000D+01  .000000000000D+00 -.931322574615D-08  .107000000000D+03
     .208806000000D+06  .400000000000D+01
15 16  9  6 12  0  0.0 -.326271168888D-03 -.147792889038D-11  .000000000000D+00
     .640000000000D+02  .661875000000D+02  .502770942428D-08  .714229220594D+00
     .354647636414D-05  .840969209094D-02  .903010368347D-05  .515366548538D+04
     .216000000000D+06 -.577419996262D-07 -.201334887855D+01  .178813934326D-06
     .930149625380D+00  .188781250000D+03  .496123211809D+00 -.837356307823D-08
     .123933733766D-09  .100000000000D+01  .191300000000D+04  .000000000000D+00
     .240000000000D+01  .000000000000D+00 -.107102096081D-07  .640000000000D+02
     .208806000000D+06  .400000000000D+01
16 16  9  6 12  0  0.0  .499142333865D-05  .193267624127D-11  .000000000000D+00
     .410000000000D+02 -.591562500000D+02  .389551940688D-08  .235957736683D+01
    -.298209488392D-05  .867004087195D-02  .859610736370D-05  .515356253052D+04
     .216000000000D+06 -.175088644028D-06  .217343367647D+00 -.298023223877D-07
     .990946686736D+00  .231656250000D+03  .388489429596D+00 -.769496338325D-08
    -.165364030933D-09  .100000000000D+01  .191300000000D+04  .000000000000D+00
     .240000000000D+01  .000000000000D+00 -.107102096081D-07  .410000000000D+02
     .208806000000D+06  .400000000000D+01
17 16  9  6 12  0  0.0 -.202757772058D-03  .341060513165D-12  .000000000000D+00
     .550000000000D+02  .156250000000D+02  .419338895720D-08  .145368751384D+01
     .689178705215D-06  .111379489535D-01  .902265310287D-05  .515374449730D+04
     .216000000000D+06 -.277534127235D-06  .123742287126D+01 -.154599547386D-06
     .977197538943D+00  .218656250000D+03 -.192464008780D+01 -.795568852922D-08
     .243224416988D-09  .100000000000D+01  .191300000000D+04  .000000000000D+00
     .240000000000D+01  .000000000000D+00 -.107102096081D-07  .550000000000D+02
     .208806000000D+06  .400000000000D+01
18 16  9  6 12  0  0.0  .554938334972D-03  .386535248253D-11  .000000000000D+00
     .920000000000D+02 -.385937500000D+02  .503735268310D-08  .301754080802D+01
    -.194273889065D-05  .172541178763D-01  .890530645847D-05  .515371551514D+04
     .216000000000D+06  .184401869774D-06 -.303315320582D+01 -.119209289551D-06
     .925575030807D+00  .184000000000D+03 -.186099578409D+01 -.799961893052D-08
    -.344657213499D-09  .100000000000D+01  .191300000000D+04  .000000000000D+00
     .240000000000D+01  .000000000000D+00 -.111758708954D-07  .920000000000D+02
     .208806000000D+06  .400000000000D+01
19 16  9  6 12  0  0.0 -.523404683918D-03  .454747350886D-12  .000000000000D+00
     .540000000000D+02  .280312500000D+02  .429625038464D-08 -.171158381621D+01
     .146031379700D-05  .105581167154D-01  .822544097900D-05  .515363005638D+04
     .216000000000D+06  .149011611938D-06  .128594761379D+01 -.260770320892D-07
     .974320633005D+00  .226156250000D+03  .857950687307D+00 -.784032658107D-08
     .356800576462D-09  .100000000000D+01  .191300000000D+04  .000000000000D+00
     .240000000000D+01  .000000000000D+00 -.149011611938D-07  .540000000000D+02
     .208806000000D+06  .400000000000D+01
21 16  9  6 12  0  0.0 -.531573779881D-03 -.454747350886D-12  .000000000000D+00
     .104000000000D+03 -.693750000000D+01  .517950146131D-08 -.229958372253D+01
    -.318512320518D-06  .234001235804D-01  .451505184174D-05  .515355107689D+04
     .216000000000D+06  .309199094772D-06  .220863197846D+01  .372529029846D-08
     .937162835634D+00  .274687500000D+03 -.176270570793D+01 -.810069456930D-08
     .100718481043D-09  .100000000000D+01  .191300000000D+04  .000000000000D+00
     .240000000000D+01  .000000000000D+00 -.977888703346D-08  .104000000000D+03
     .208806000000D+06  .400000000000D+01
23 16  9  6 12  0  0.0 -.188910402358D-03 -.136424205266D-11  .000000000000D+00
     .820000000000D+02  .532500000000D+02  .477698469487D-08  .169833373853D+00
     .294856727123D-05  .111429448007D-01  .896677374840D-05  .515362123108D+04
     .216000000000D+06  .894069671631D-07 -.195395606348D+01  .245869159698D-06
     .945327990008D+00  .199718750000D+03 -.253233664852D+01 -.830391732006D-08
     .243581574722D-09  .100000000000D+01  .191300000000D+04  .000000000000D+00
     .240000000000D+01  .000000000000D+00 -.200234353542D-07  .820000000000D+02
     .208806000000D+06  .400000000000D+01
24 16  9  6 12  0  0.0 -.227559357882D-04 -.568434188608D-12  .000000000000D+00
     .740000000000D+02  .148125000000D+02  .515200031578D-08 -.361879711914D+00
     .875443220139D-06  .461771187838D-02  .363960862160D-05  .515372832298D+04
     .216000000000D+06  .875443220139D-07 -.928336765593D+00 -.558793544769D-08
     .948110904922D+00  .303656250000D+03  .397027560786D+00 -.862214486123D-08
     .871464871438D-10  .100000000000D+01  .191300000000D+04  .000000000000D+00
     .340000000000D+01  .000000000000D+00  .232830643654D-08  .740000000000D+02
     .208806000000D+06  .400000000000D+01
25 16  9  6 12  0  0.0 -.240715686232D-03 -.693489710102D-11  .000000000000D+00
     .340000000000D+02 -.544062500000D+02  .417124517768D-08 -.248214795810D+01
    -.288151204586D-05  .558845524210D-02  .853650271893D-05  .515370638466D+04
     .216000000000D+06  .122934579849D-06  .146463624729D+00 -.763684511185D-07
     .978589985332D+00  .222843750000D+03  .790754561873D+00 -.788890003292D-08
    -.158220876249D-09  .100000000000D+01  .191300000000D+04  .000000000000D+00
     .240000000000D+01  .000000000000D+00  .558793544769D-08  .340000000000D+02
     .208806000000D+06  .400000000000D+01
28 16  9  6 12  0  0.0  .550009310246D-03  .284217094304D-11  .000000000000D+00
     .690000000000D+02 -.526250000000D+02  .376837125350D-08  .230863629032D+01
    -.280700623989D-05  .198239949532D-01  .863522291183D-05  .515363541985D+04
     .216000000000D+06  .208616256714D-06  .222178741996D+00 -.182539224625D-06
     .989679843567D+00  .225312500000D+03 -.161282652936D+01 -.739459372880D-08
    -.228938107620D-09  .100000000000D+01  .191300000000D+04  .000000000000D+00
     .240000000000D+01  .000000000000D+00 -.107102096081D-07  .690000000000D+02
     .208806000000D+06  .400000000000D+01
29 16  9  6 12  0  0.0  .651726499200D-03 -.102318153949D-11  .000000000000D+00
     .280000000000D+02  .173437500000D+02  .414267255894D-08 -.282634555181D+01
     .754371285439D-06  .578028615564D-03  .920519232750D-05  .515375733757D+04
     .216000000000D+06 -.838190317154D-07  .124725770524D+01  .372529029846D-08
     .978203167848D+00  .207687500000D+03  .111377708494D+00 -.784889836669D-08
     .232152527227D-09  .100000000000D+01  .191300000000D+04  .000000000000D+00
     .240000000000D+01  .000000000000D+00 -.102445483208D-07  .280000000000D+02
     .208806000000D+06  .400000000000D+01
30 16  9  6 12  0  0.0  .149100087583D-03  .170530256582D-11  .000000000000D+00
     .200000000000D+02  .621875000000D+01  .497556439509D-08 -.127941190293D+01
     .894069671631D-07  .239199819043D-02  .383332371712D-05  .515377445412D+04
     .216000000000D+06  .409781932831D-07 -.836709245533D+00  .931322574615D-08
     .950876987500D+00  .298000000000D+03  .313352667921D+01 -.848071039849D-08
     .778603860547D-10  .100000000000D+01  .191300000000D+04  .000000000000D+00
     .240000000000D+01  .000000000000D+00  .372529029846D-08  .200000000000D+02
     .208806000000D+06  .400000000000D+01
31 16  9  6 12  0  0.0  .249472912401D-03 -.204636307899D-11  .000000000000D+00
     .610000000000D+02  .174375000000D+02  .466412285087D-08 -.151281328638D+01
     .638887286186D-06  .830402399879D-02  .443309545517D-05  .515354194832D+04
     .216000000000D+06 -.931322574615D-07 -.869600208259D+00 -.135973095894D-06
     .969880265555D+00  .302437500000D+03 -.383209733378D+00 -.832606109958D-08
     .186436337250D-09  .100000000000D+01  .191300000000D+04  .000000000000D+00
     .240000000000D+01  .000000000000D+00 -.135041773319D-07  .610000000000D+02
     .208806000000D+06  .400000000000D+01
32 16  9  6 12  0  0.0 -.105353072286D-03 -.138697942020D-10  .000000000000D+00
     .500000000000D+02  .688750000000D+02  .437696803257D-08  .183657146121D+01
     .363960862160D-05  .648311804980D-03  .955164432526D-05  .515364583588D+04
     .216000000000D+06 -.111758708954D-07 -.195633962810D+01 -.167638063431D-07
     .958979637237D+00  .189375000000D+03 -.230325711568D+01 -.801819113270D-08
     .228938107620D-09  .100000000000D+01  .191300000000D+04  .000000000000D+00
     .240000000000D+01  .000000000000D+00  .931322574615D-09  .500000000000D+02
     .208806000000D+06  .400000000000D+01
